STARLINK-3087
1 29175C 21082AX  21325.14361148  .00017251  00000-0  14445-3 0  3250
2 29175  69.9987 295.5970 0003635 287.4428 293.0367 15.69739620    14
